2022 100
NOAA 15                 
1 25338U 98030A   22099.73324981  .00000139  00000+0  76452-4 0  9990
2 25338  98.6520 130.1433 0011301 134.2371 225.9739 14.26106374243476
DMSP 5D-3 F15 (USA 147) 
1 25991U 99067A   22099.61640581  .00000177  00000+0  11184-3 0  9992
2 25991  99.0503  90.0266 0010704  29.7623  80.7398 14.16516946154028
METEOSAT-8 (MSG-1)      
1 27509U 02040B   22097.04357529  .00000137  00000+0  00000+0 0  9993
2 27509   7.9077  51.0218 0002066 309.4497 251.9154  1.00271929 71895
DMSP 5D-3 F16 (USA 172) 
1 28054U 03048A   22099.75146437  .00000091  00000+0  72238-4 0  9998
2 28054  98.9857  90.2190 0007894 145.0232  27.9938 14.13662698953318
NOAA 18                 
1 28654U 05018A   22099.71899995  .00000161  00000+0  11080-3 0  9998
2 28654  98.9538 170.1974 0014784 162.2251 197.9440 14.12710373870368
METEOSAT-9 (MSG-2)      
1 28912U 05049B   22099.59479227  .00000140  00000+0  00000+0 0  9990
2 28912   5.8663  66.7146 0000744 260.4350 123.7652  1.00435757 59706
EWS-G1 (GOES 13)        
1 29155U 06018A   22099.76177373  .00000035  00000+0  00000+0 0  9996
2 29155   0.4215  96.7596 0001769 156.0524 280.9367  1.00274207 58173
DMSP 5D-3 F17 (USA 191) 
1 29522U 06050A   22099.72706508  .00000143  00000+0  97825-4 0  9990
2 29522  98.7717 116.0553 0011061  96.7557 263.4875 14.14087195796197
FENGYUN 3A              
1 32958U 08026A   22099.49295994  .00000122  00000+0  79022-4 0  9994
2 32958  98.4952  64.9703 0007951 217.1517 142.9110 14.18701467718442
FENGYUN 2E              
1 33463U 08066A   22099.49249628 -.00000199  00000+0  00000+0 0  9993
2 33463   5.7542  65.6838 0004063   3.9119  31.6644  1.00278569 48752
NOAA 19                 
1 33591U 09005A   22099.71248763  .00000150  00000+0  10630-3 0  9993
2 33591  99.1563 132.3794 0014195  25.2066 334.9794 14.12546612678749
GOES 14                 
1 35491U 09033A   22099.59802762 -.00000093  00000+0  00000+0 0  9999
2 35491   0.1563  90.8031 0011657 132.8216  84.9891  1.00272475 46819
METEOR-M 1              
1 35865U 09049A   22099.52617741  .00000121  00000+0  73413-4 0  9999
2 35865  98.5215  72.2456 0003403  73.8094 286.3459 14.22318530651745
DMSP 5D-3 F18 (USA 210) 
1 35951U 09057A   22099.74178398  .00000249  00000+0  15543-3 0  9998
2 35951  98.7175  80.8416 0009931 285.0189  74.9885 14.13471309643405
GOES 15                 
1 36411U 10008A   22099.66498389  .00000054  00000+0  00000+0 0  9996
2 36411   0.1289 106.5408 0001547 317.2075 245.1158  1.00272688 44326
COMS 1                  
1 36744U 10032A   22099.46844211 -.00000345  00000+0  00000+0 0  9993
2 36744   0.8871  94.0314 0000864 266.6280 133.8144  1.00273599 35759
FENGYUN 3B              
1 37214U 10059A   22099.58472230  .00000022  00000+0  35518-4 0  9994
2 37214  99.0934 104.3311 0021988 186.8195 173.2671 14.14248834591227
SUOMI NPP               
1 37849U 11061A   22099.75860316  .00000068  00000+0  53203-4 0  9998
2 37849  98.7275  39.2800 0001135  97.8343 318.7811 14.19555106541441
FENGYUN 2F              
1 38049U 12002A   22099.49755493 -.00000355  00000+0  00000+0 0  9999
2 38049   3.6237  80.1776 0004760   5.7400  42.7237  1.00261635 37547
METEOSAT-10 (MSG-3)     
1 38552U 12035B   22099.26191168  .00000060  00000+0  00000+0 0  9994
2 38552   1.4282  36.5939 0001886 256.6705   7.8683  1.00266550 35512
METOP-B                 
1 38771U 12049A   22099.79646049  .00000087  00000+0  59860-4 0  9995
2 38771  98.7030 160.5411 0000522 141.9290 328.7076 14.21491659495977
FENGYUN 3C              
1 39260U 13052A   22099.58344033  .00000106  00000+0  74687-4 0  9995
2 39260  98.4622 131.1587 0012325 111.2503 248.9989 14.15910789442177
METEOR-M 2              
1 40069U 14037A   22099.37472651  .00000029  00000+0  32824-4 0  9994
2 40069  98.4377 120.3125 0006235 151.3496 208.8028 14.20702335402054
HIMAWARI-8              
1 40267U 14060A   22099.50331133 -.00000277  00000+0  00000+0 0  9996
2 40267   0.0111 144.6817 0000864 219.0709 155.8113  1.00274710 27422
FENGYUN 2G              
1 40367U 14090A   22099.49520005 -.00000303  00000+0  00000+0 0  9996
2 40367   1.7614  90.0467 0002584 340.8850  44.8051  1.00268715 26666
METEOSAT-11 (MSG-4)     
1 40732U 15034A   22099.33168619 -.00000006  00000+0  00000+0 0  9993
2 40732   0.1941  20.4393 0000789  54.5846 241.9954  1.00265094 24681
ELEKTRO-L 2             
1 41105U 15074A   22099.40067573 -.00000114  00000+0  00000+0 0  9997
2 41105   2.8145  88.9036 0000690  32.2654 206.2887  1.00271722 23172
HIMAWARI-9              
1 41836U 16064A   22099.50331133 -.00000276  00000+0  00000+0 0  9994
2 41836   0.0216 132.3335 0000992 250.4889 136.8411  1.00271147 19859
GOES 16                 
1 41866U 16071A   22099.46031279 -.00000250  00000+0  00000+0 0  9990
2 41866   0.0649 285.1039 0000793 114.3579 248.7155  1.00272034 19778
FENGYUN 4A              
1 41882U 16077A   22099.56793735 -.00000331  00000+0  00000+0 0  9997
2 41882   0.2024 284.8816 0005140 200.0144  21.9588  1.00270962 19641
CYGFM05                 
1 41884U 16078A   22099.56315979  .00003933  00000+0  20187-3 0  9992
2 41884  34.9555 270.7512 0015200 197.3635 162.6558 15.15879547294329
CYGFM04                 
1 41885U 16078B   22099.50738670  .00004126  00000+0  20864-3 0  9991
2 41885  34.9489 260.7133 0013911 213.1175 146.8667 15.16399043294512
CYGFM02                 
1 41886U 16078C   22099.49960221  .00004422  00000+0  22335-3 0  9993
2 41886  34.9578 262.9422 0014480 206.9849 153.0111 15.16417985294438
CYGFM01                 
1 41887U 16078D   22099.55548593  .00003778  00000+0  19520-3 0  9990
2 41887  34.9523 273.0683 0015692 196.6440 163.3757 15.15653876294271
CYGFM08                 
1 41888U 16078E   22099.16571685  .00004176  00000+0  21282-3 0  9997
2 41888  34.9493 268.4634 0014963 204.5606 155.4393 15.16109625294340
CYGFM06                 
1 41889U 16078F   22099.54634444  .00004281  00000+0  21625-3 0  9991
2 41889  34.9572 261.3436 0013461 207.7475 152.2519 15.16430986294388
CYGFM07                 
1 41890U 16078G   22099.52802892  .00003972  00000+0  20106-3 0  9994
2 41890  34.9509 260.2880 0013312 211.9393 148.0513 15.16385350294361
CYGFM03                 
1 41891U 16078H   22099.52635354  .00003972  00000+0  20112-3 0  9999
2 41891  34.9542 260.7492 0012798 210.1514 149.8462 15.16379582294357
FENGYUN 3D              
1 43010U 17072A   22099.40157180  .00000107  00000+0  72421-4 0  9990
2 43010  98.8097  44.3669 0002983  89.9113 270.2409 14.19192345227976
NOAA 20                 
1 43013U 17073A   22099.78299209  .00000078  00000+0  57997-4 0  9992
2 43013  98.7515  39.3524 0000673  88.9563 271.1690 14.19538377227486
GOES 17                 
1 43226U 18022A   22099.57230347  .00000096  00000+0  00000+0 0  9996
2 43226   0.0477 294.4781 0000397  39.6541 292.4766  1.00272745 15087
FENGYUN 2H              
1 43491U 18050A   22099.41934042 -.00000129  00000+0  00000+0 0  9995
2 43491   0.9730  98.5310 0003302  18.7324 310.5476  1.00270251 14099
METOP-C                 
1 43689U 18087A   22099.74176517  .00000083  00000+0  58072-4 0  9990
2 43689  98.6911 160.8024 0002064 218.0207 142.0825 14.21495360177540
GEO-KOMPSAT-2A          
1 43823U 18100A   22099.52966096 -.00000345  00000+0  00000+0 0  9996
2 43823   0.0494  43.2783 0001723  10.2744 103.1321  1.00271424 12282
METEOR-M2 2             
1 44387U 19038A   22099.41923157  .00000038  00000+0  36173-4 0  9995
2 44387  98.7156  60.7800 0002399 100.5551 259.5904 14.23704667143580
FENGYUN 3E              
1 49008U 21062A   22098.49183594 -.00012268  00000+0 -57891-2 0  9998
2 49008  98.7123 101.5567 0002111 149.7297  13.0597 14.19717734 39384
GOES 18                 
1 51850U 22021A   22099.51438465 -.00000184  00000+0  00000+0 0  9996
2 51850   0.0166 304.9872 0000279 198.1217 150.4503  1.00272102   467
